STARLINK-37032          
1 68181U 26050Q   26095.54670938  .00274958  00000+0  13448-2 0  9997
2 68181  53.1566 147.1221 0001281 101.5900 258.5267 15.81000038  4722
STARLINK-37082          
1 68182U 26050R   26095.54595960  .00271999  00000+0  13307-2 0  9995
2 68182  53.1566 147.1166 0001620  83.3505 276.7702 15.81002301  4727
STARLINK-37102          
1 68183U 26050S   26095.54521124  .00120655  00000+0  60428-3 0  9996
2 68183  53.1567 147.1118 0002013  64.4602 295.6629 15.80945568  4729
STARLINK-36964          
1 68184U 26050T   26095.54446033  .00117836  00000+0  59060-3 0  9999
2 68184  53.1567 147.1067 0001333  88.5567 271.5609 15.80940319  4724
STARLINK-37061          
1 68185U 26050U   26095.54370842  .00108120  00000+0  54276-3 0  9994
2 68185  53.1567 147.1019 0001138 109.6006 250.5139 15.80942239  4726
STARLINK-37079          
1 68186U 26050V   26093.51993788  .00091190  00000+0  46237-3 0  9996
2 68186  53.1575 157.2358 0001136  74.7271 285.3878 15.80793272  4400
STARLINK-37006          
1 68187U 26050W   26095.54220840  .00117770  00000+0  59015-3 0  9995
2 68187  53.1565 147.0917 0001037  89.5138 270.6003 15.80945085  4727
STARLINK-36340          
1 68188U 26050X   26095.35071975  .00557272  00000+0  24269-2 0  9995
2 68188  53.1562 148.0303 0002340  63.4768 296.6495 15.82764336  4591
STARLINK-36305          
1 68189U 26050Y   26095.60392570  .00146599  00000+0  73052-3 0  9992
2 68189  53.1565 146.7646 0001231  87.4536 272.6627 15.80968293  4639
STARLINK-37071          
1 68190U 26050Z   26095.53920694  .00245334  00000+0  12047-2 0  9993
2 68190  53.1564 147.0712 0001467  66.4056 293.7121 15.80996280  4723
STARLINK-37091          
1 68191U 26050AA  26095.53845987  .00098500  00000+0  49532-3 0  9996
2 68191  53.1564 147.0661 0001695  79.4789 280.6424 15.80942146  4720
STARLINK-37098          
1 68192U 26050AB  26095.53770836  .00114129  00000+0  57248-3 0  9996
2 68192  53.1566 147.0613 0001183 102.1376 257.9779 15.80936710  4728
STARLINK-37090          
1 68193U 26050AC  26095.53620816  .00262284  00000+0  12852-2 0  9996
2 68193  53.1562 147.0501 0001219  78.5803 281.5357 15.80994200  4725
STARLINK-37093          
1 68194U 26050AD  26095.53995914  .00151038  00000+0  75256-3 0  9993
2 68194  53.1564 147.0758 0001437 105.3346 254.7835 15.80956258  4729
STARLINK-37058          
1 68195U 26050AE  26095.53695772  .00255877  00000+0  12552-2 0  9998
2 68195  53.1562 147.0554 0001120  85.6487 274.4664 15.80988426  3165
YAOGAN-50 02            
1 68196U 26051A   26095.58276581  .00000308  00000+0  10985-3 0  9994
2 68196 141.9859 336.9666 0000719 269.9250  90.1388 13.83261185  2939
