[{"OBJECT_NAME":"STARLINK-37032","OBJECT_ID":"2026-050Q","EPOCH":"2026-04-05T13:07:15.690432","MEAN_MOTION":15.81000038,"ECCENTRICITY":0.00012812,"INCLINATION":53.1566,"RA_OF_ASC_NODE":147.1221,"ARG_OF_PERICENTER":101.59,"MEAN_ANOMALY":258.5267,"EPHEMERIS_TYPE":0,"CLASSIFICATION_TYPE":"U","NORAD_CAT_ID":68181,"ELEMENT_SET_NO":999,"REV_AT_EPOCH":472,"BSTAR":0.0013448302,"MEAN_MOTION_DOT":0.00274958,"MEAN_MOTION_DDOT":0},{"OBJECT_NAME":"STARLINK-37082","OBJECT_ID":"2026-050R","EPOCH":"2026-04-05T13:06:10.909440","MEAN_MOTION":15.81002301,"ECCENTRICITY":0.00016206,"INCLINATION":53.1566,"RA_OF_ASC_NODE":147.1166,"ARG_OF_PERICENTER":83.3505,"MEAN_ANOMALY":276.7702,"EPHEMERIS_TYPE":0,"CLASSIFICATION_TYPE":"U","NORAD_CAT_ID":68182,"ELEMENT_SET_NO":999,"REV_AT_EPOCH":472,"BSTAR":0.0013307198,"MEAN_MOTION_DOT":0.00271999,"MEAN_MOTION_DDOT":0},{"OBJECT_NAME":"STARLINK-37102","OBJECT_ID":"2026-050S","EPOCH":"2026-04-05T13:05:06.251136","MEAN_MOTION":15.80945568,"ECCENTRICITY":0.00020139,"INCLINATION":53.1567,"RA_OF_ASC_NODE":147.1118,"ARG_OF_PERICENTER":64.4602,"MEAN_ANOMALY":295.6629,"EPHEMERIS_TYPE":0,"CLASSIFICATION_TYPE":"U","NORAD_CAT_ID":68183,"ELEMENT_SET_NO":999,"REV_AT_EPOCH":472,"BSTAR":0.00060427868,"MEAN_MOTION_DOT":0.00120655,"MEAN_MOTION_DDOT":0},{"OBJECT_NAME":"STARLINK-36964","OBJECT_ID":"2026-050T","EPOCH":"2026-04-05T13:04:01.372512","MEAN_MOTION":15.80940319,"ECCENTRICITY":0.00013331,"INCLINATION":53.1567,"RA_OF_ASC_NODE":147.1067,"ARG_OF_PERICENTER":88.5567,"MEAN_ANOMALY":271.5609,"EPHEMERIS_TYPE":0,"CLASSIFICATION_TYPE":"U","NORAD_CAT_ID":68184,"ELEMENT_SET_NO":999,"REV_AT_EPOCH":472,"BSTAR":0.00059060224,"MEAN_MOTION_DOT":0.00117836,"MEAN_MOTION_DDOT":0},{"OBJECT_NAME":"STARLINK-37061","OBJECT_ID":"2026-050U","EPOCH":"2026-04-05T13:02:56.407488","MEAN_MOTION":15.80942239,"ECCENTRICITY":0.00011382,"INCLINATION":53.1567,"RA_OF_ASC_NODE":147.1019,"ARG_OF_PERICENTER":109.6006,"MEAN_ANOMALY":250.5139,"EPHEMERIS_TYPE":0,"CLASSIFICATION_TYPE":"U","NORAD_CAT_ID":68185,"ELEMENT_SET_NO":999,"REV_AT_EPOCH":472,"BSTAR":0.00054275683,"MEAN_MOTION_DOT":0.0010812,"MEAN_MOTION_DDOT":0},{"OBJECT_NAME":"STARLINK-37079","OBJECT_ID":"2026-050V","EPOCH":"2026-04-03T12:28:42.632832","MEAN_MOTION":15.80793272,"ECCENTRICITY":0.0001136,"INCLINATION":53.1575,"RA_OF_ASC_NODE":157.2358,"ARG_OF_PERICENTER":74.7271,"MEAN_ANOMALY":285.3878,"EPHEMERIS_TYPE":0,"CLASSIFICATION_TYPE":"U","NORAD_CAT_ID":68186,"ELEMENT_SET_NO":999,"REV_AT_EPOCH":440,"BSTAR":0.00046237,"MEAN_MOTION_DOT":0.0009119,"MEAN_MOTION_DDOT":0},{"OBJECT_NAME":"STARLINK-37006","OBJECT_ID":"2026-050W","EPOCH":"2026-04-05T13:00:46.805760","MEAN_MOTION":15.80945085,"ECCENTRICITY":0.00010372,"INCLINATION":53.1565,"RA_OF_ASC_NODE":147.0917,"ARG_OF_PERICENTER":89.5138,"MEAN_ANOMALY":270.6003,"EPHEMERIS_TYPE":0,"CLASSIFICATION_TYPE":"U","NORAD_CAT_ID":68187,"ELEMENT_SET_NO":999,"REV_AT_EPOCH":472,"BSTAR":0.00059015187,"MEAN_MOTION_DOT":0.0011777,"MEAN_MOTION_DDOT":0},{"OBJECT_NAME":"STARLINK-36340","OBJECT_ID":"2026-050X","EPOCH":"2026-04-05T08:25:02.186400","MEAN_MOTION":15.82764336,"ECCENTRICITY":0.00023409,"INCLINATION":53.1562,"RA_OF_ASC_NODE":148.0303,"ARG_OF_PERICENTER":63.4768,"MEAN_ANOMALY":296.6495,"EPHEMERIS_TYPE":0,"CLASSIFICATION_TYPE":"U","NORAD_CAT_ID":68188,"ELEMENT_SET_NO":999,"REV_AT_EPOCH":459,"BSTAR":0.0024269138,"MEAN_MOTION_DOT":0.00557272,"MEAN_MOTION_DDOT":0},{"OBJECT_NAME":"STARLINK-36305","OBJECT_ID":"2026-050Y","EPOCH":"2026-04-05T14:29:39.180480","MEAN_MOTION":15.80968293,"ECCENTRICITY":0.00012311,"INCLINATION":53.1565,"RA_OF_ASC_NODE":146.7646,"ARG_OF_PERICENTER":87.4536,"MEAN_ANOMALY":272.6627,"EPHEMERIS_TYPE":0,"CLASSIFICATION_TYPE":"U","NORAD_CAT_ID":68189,"ELEMENT_SET_NO":999,"REV_AT_EPOCH":463,"BSTAR":0.00073052385,"MEAN_MOTION_DOT":0.00146599,"MEAN_MOTION_DDOT":0},{"OBJECT_NAME":"STARLINK-37071","OBJECT_ID":"2026-050Z","EPOCH":"2026-04-05T12:56:27.479616","MEAN_MOTION":15.8099628,"ECCENTRICITY":0.00014678,"INCLINATION":53.1564,"RA_OF_ASC_NODE":147.0712,"ARG_OF_PERICENTER":66.4056,"MEAN_ANOMALY":293.7121,"EPHEMERIS_TYPE":0,"CLASSIFICATION_TYPE":"U","NORAD_CAT_ID":68190,"ELEMENT_SET_NO":999,"REV_AT_EPOCH":472,"BSTAR":0.0012046792,"MEAN_MOTION_DOT":0.00245334,"MEAN_MOTION_DDOT":0},{"OBJECT_NAME":"STARLINK-37091","OBJECT_ID":"2026-050AA","EPOCH":"2026-04-05T12:55:22.932768","MEAN_MOTION":15.80942146,"ECCENTRICITY":0.0001695,"INCLINATION":53.1564,"RA_OF_ASC_NODE":147.0661,"ARG_OF_PERICENTER":79.4789,"MEAN_ANOMALY":280.6424,"EPHEMERIS_TYPE":0,"CLASSIFICATION_TYPE":"U","NORAD_CAT_ID":68191,"ELEMENT_SET_NO":999,"REV_AT_EPOCH":472,"BSTAR":0.00049531883,"MEAN_MOTION_DOT":0.000985,"MEAN_MOTION_DDOT":0},{"OBJECT_NAME":"STARLINK-37098","OBJECT_ID":"2026-050AB","EPOCH":"2026-04-05T12:54:18.002304","MEAN_MOTION":15.8093671,"ECCENTRICITY":0.00011833,"INCLINATION":53.1566,"RA_OF_ASC_NODE":147.0613,"ARG_OF_PERICENTER":102.1376,"MEAN_ANOMALY":257.9779,"EPHEMERIS_TYPE":0,"CLASSIFICATION_TYPE":"U","NORAD_CAT_ID":68192,"ELEMENT_SET_NO":999,"REV_AT_EPOCH":472,"BSTAR":0.00057247582,"MEAN_MOTION_DOT":0.00114129,"MEAN_MOTION_DDOT":0},{"OBJECT_NAME":"STARLINK-37090","OBJECT_ID":"2026-050AC","EPOCH":"2026-04-05T12:52:08.385024","MEAN_MOTION":15.809942,"ECCENTRICITY":0.00012196,"INCLINATION":53.1562,"RA_OF_ASC_NODE":147.0501,"ARG_OF_PERICENTER":78.5803,"MEAN_ANOMALY":281.5357,"EPHEMERIS_TYPE":0,"CLASSIFICATION_TYPE":"U","NORAD_CAT_ID":68193,"ELEMENT_SET_NO":999,"REV_AT_EPOCH":472,"BSTAR":0.0012852448,"MEAN_MOTION_DOT":0.00262284,"MEAN_MOTION_DDOT":0},{"OBJECT_NAME":"STARLINK-37093","OBJECT_ID":"2026-050AD","EPOCH":"2026-04-05T12:57:32.469696","MEAN_MOTION":15.80956258,"ECCENTRICITY":0.00014377,"INCLINATION":53.1564,"RA_OF_ASC_NODE":147.0758,"ARG_OF_PERICENTER":105.3346,"MEAN_ANOMALY":254.7835,"EPHEMERIS_TYPE":0,"CLASSIFICATION_TYPE":"U","NORAD_CAT_ID":68194,"ELEMENT_SET_NO":999,"REV_AT_EPOCH":472,"BSTAR":0.00075256093,"MEAN_MOTION_DOT":0.00151038,"MEAN_MOTION_DDOT":0},{"OBJECT_NAME":"STARLINK-37058","OBJECT_ID":"2026-050AE","EPOCH":"2026-04-05T12:53:13.147008","MEAN_MOTION":15.80988426,"ECCENTRICITY":0.00011207,"INCLINATION":53.1562,"RA_OF_ASC_NODE":147.0554,"ARG_OF_PERICENTER":85.6487,"MEAN_ANOMALY":274.4664,"EPHEMERIS_TYPE":0,"CLASSIFICATION_TYPE":"U","NORAD_CAT_ID":68195,"ELEMENT_SET_NO":999,"REV_AT_EPOCH":316,"BSTAR":0.0012552058,"MEAN_MOTION_DOT":0.00255877,"MEAN_MOTION_DDOT":0},{"OBJECT_NAME":"YAOGAN-50 02","OBJECT_ID":"2026-051A","EPOCH":"2026-04-05T13:59:10.965984","MEAN_MOTION":13.83261185,"ECCENTRICITY":7.199e-5,"INCLINATION":141.9859,"RA_OF_ASC_NODE":336.9666,"ARG_OF_PERICENTER":269.925,"MEAN_ANOMALY":90.1388,"EPHEMERIS_TYPE":0,"CLASSIFICATION_TYPE":"U","NORAD_CAT_ID":68196,"ELEMENT_SET_NO":999,"REV_AT_EPOCH":293,"BSTAR":0.00010985166,"MEAN_MOTION_DOT":3.08e-6,"MEAN_MOTION_DDOT":0}]
